KUIPER-00446            
1 68944U 26098AB  26194.16668980  .00040761  00000+0  14617-2 0  9990
2 68944  51.8775 303.0553 0004548 235.2438  20.3345 15.28309182  5093
KUIPER-00451            
1 68945U 26098AC  26194.16668980 -.00006162  00000+0 -61638-3 0  9996
2 68945  51.8974 308.3008 0007252 233.9420 236.7901 14.89446727  5813
KUIPER-00452            
1 68946U 26098AD  26193.71112042  .00017793  00000+0  50776-3 0  9991
2 68946  51.8761 304.3249 0002613 271.1298  88.9388 15.36106127 11277
KUIPER-00453            
1 68947U 26098AE  26193.54098343  .00011754  00000+0  32491-3 0  9995
2 68947  51.8754 304.6951 0003268 316.6094  43.4635 15.37469462 11253
KUIPER-00454            
1 68948U 26098AF  26194.16668980 -.00022318  00000+0 -27370-2 0  9994
2 68948  51.8998 309.4036 0005972 225.2385 150.1924 14.82442075  5657
KUIPER-00455            
1 68949U 26098AG  26194.16668980 -.00010101  00000+0 -99787-3 0  9994
2 68949  51.8958 308.5248 0013713 240.3293 263.5694 14.90533691  5081
KUIPER-00458            
1 68950U 26098AH  26193.69825726  .00016517  00000+0  46204-3 0  9997
2 68950  51.8780 304.2566 0003173 295.7610  64.3048 15.36785507 11272
STARLINK-37258          
1 68951U 26099A   26193.95408800  .00012855  00000+0  39085-3 0  9998
2 68951  53.1590  41.1672 0001282  84.6832 275.4316 15.34406580 11229
STARLINK-37308          
1 68952U 26099B   26193.95198904  .00015433  00000+0  46692-3 0  9997
2 68952  53.1593  41.1714 0001159  92.2805 267.8330 15.34402685 11221
STARLINK-37337          
1 68953U 26099C   26193.94988065  .00015219  00000+0  46052-3 0  9994
2 68953  53.1584  41.1607 0001297  87.6100 272.5051 15.34408861 11227
STARLINK-37301          
1 68954U 26099D   26193.81539964  .00012186  00000+0  37120-3 0  9997
2 68954  53.1604  41.7386 0002035 124.5465 235.5730 15.34401457 11202
STARLINK-36794          
1 68955U 26099E   26193.88263801  .00015505  00000+0  46897-3 0  9998
2 68955  53.1587  41.4344 0001298 113.5684 246.5455 15.34407557 11219
STARLINK-36760          
1 68956U 26099F   26193.87842986  .00016595  00000+0  50103-3 0  9990
2 68956  53.1581  41.4028 0001055  90.4540 269.6583 15.34410072 11212
STARLINK-37047          
1 68957U 26099G   26193.87632838  .00009575  00000+0  29414-3 0  9995
2 68957  53.1589  41.4117 0001220  84.0070 276.1071 15.34403342 11218
STARLINK-36242          
1 68958U 26099H   26193.87422161  .00010207  00000+0  31276-3 0  9995
2 68958  53.1584  41.3832 0001287  96.3803 263.7346 15.34404355 11212
STARLINK-37033          
1 68959U 26099J   26193.87212128  .00015135  00000+0  45816-3 0  9996
2 68959  53.1593  41.3826 0001258  90.3967 269.7180 15.34401679 11217
STARLINK-36978          
1 68960U 26099K   26193.80487851  .00012976  00000+0  39442-3 0  9996
2 68960  53.1582  41.6727 0001342 108.4863 251.6286 15.34406607 11202
STARLINK-36965          
1 68961U 26099L   26193.86790793  .00026193  00000+0  78415-3 0  9994
2 68961  53.1581  41.3536 0001052  76.4038 283.7082 15.34379448 11216
STARLINK-36765          
1 68962U 26099M   26193.99607786  .00007355  00000+0  22860-3 0  9990
2 68962  53.1606  40.7142 0001452  81.4192 278.6975 15.34398726 11238
STARLINK-36764          
1 68963U 26099N   26193.86370071  .00010428  00000+0  31933-3 0  9997
2 68963  53.1594  41.3093 0001165  88.5969 271.5167 15.34400912 11212
STARLINK-36731          
1 68964U 26099P   26193.86159778  .00016930  00000+0  51095-3 0  9992
2 68964  53.1586  41.2945 0000997  86.1050 274.0067 15.34407677 11218
STARLINK-36664          
1 68965U 26099Q   26193.98976154  .00021161  00000+0  63536-3 0  9996
2 68965  53.1592  40.6721 0001094  70.9631 289.1490 15.34414575 11230
STARLINK-36402          
1 68966U 26099R   26193.98765963  .00016594  00000+0  50098-3 0  9994
2 68966  53.1591  40.6674 0001112  83.8728 276.2401 15.34410987 11230
STARLINK-36671          
1 68967U 26099S   26193.84168035  .00014770  00000+0  45938-3 0  9998
2 68967  53.1599  41.1611 0001216  99.2025 260.9114 15.33560576 11210
STARLINK-36665          
1 68968U 26099T   26193.98345087  .00013751  00000+0  41724-3 0  9995
2 68968  53.1606  40.6329 0001210 103.1756 256.9381 15.34410328 11233
STARLINK-36303          
1 68969U 26099U   26193.84022823  .00016477  00000+0  51100-3 0  9998
2 68969  53.1607  41.1497 0001483 112.2735 247.8425 15.33563657 11216
STARLINK-37257          
1 68970U 26099V   26193.84897198  .00015051  00000+0  45565-3 0  9990
2 68970  53.1598  41.2167 0000958 106.3987 253.7121 15.34402701 11213
STARLINK-37367          
1 68971U 26099W   26193.84686867  .00010141  00000+0  31080-3 0  9992
2 68971  53.1601  41.2124 0001279  82.7294 277.3854 15.34404646 11212
STARLINK-37259          
1 68972U 26099X   26193.84476384  .00020275  00000+0  60924-3 0  9992
2 68972  53.1602  41.1990 0001187 119.1888 240.9233 15.34417548 11218
STARLINK-37387          
1 68973U 26099Y   26193.89095343  .00020873  00000+0  62644-3 0  9995
2 68973  53.1593  40.7885 0001689  70.5418 289.5767 15.34436677 11228
