OBJECT_NAME,OBJECT_ID,EPOCH,MEAN_MOTION,ECCENTRICITY,INCLINATION,RA_OF_ASC_NODE,ARG_OF_PERICENTER,MEAN_ANOMALY,EPHEMERIS_TYPE,CLASSIFICATION_TYPE,NORAD_CAT_ID,ELEMENT_SET_NO,REV_AT_EPOCH,BSTAR,MEAN_MOTION_DOT,MEAN_MOTION_DDOT
KUIPER-00446,2026-098AB,2026-07-13T04:00:01.998720,15.28309182,.0004548,51.8775,303.0553,235.2438,20.3345,0,U,68944,999,509,.14617E-2,.40761E-3,0
KUIPER-00451,2026-098AC,2026-07-13T04:00:01.998720,14.89446727,.0007252,51.8974,308.3008,233.9420,236.7901,0,U,68945,999,581,-.61638E-3,-.6162E-4,0
KUIPER-00452,2026-098AD,2026-07-12T17:04:00.804288,15.36106127,.0002613,51.8761,304.3249,271.1298,88.9388,0,U,68946,999,1127,.50776E-3,.17793E-3,0
KUIPER-00453,2026-098AE,2026-07-12T12:59:00.968352,15.37469462,.00032683,51.8754,304.6951,316.6094,43.4635,0,U,68947,999,1125,.32490594E-3,.11754E-3,0
KUIPER-00454,2026-098AF,2026-07-13T04:00:01.998720,14.82442075,.0005972,51.8998,309.4036,225.2385,150.1924,0,U,68948,999,565,-.2737E-2,-.22318E-3,0
KUIPER-00455,2026-098AG,2026-07-13T04:00:01.998720,14.90533691,.0013713,51.8958,308.5248,240.3293,263.5694,0,U,68949,999,508,-.99787E-3,-.10101E-3,0
KUIPER-00458,2026-098AH,2026-07-12T16:45:29.427264,15.36785507,.0003173,51.8780,304.2566,295.7610,64.3048,0,U,68950,999,1127,.46204E-3,.16517E-3,0
STARLINK-37258,2026-099A,2026-07-12T22:53:53.203200,15.34406580,.0001282,53.1590,41.1672,84.6832,275.4316,0,U,68951,999,1122,.39085E-3,.12855E-3,0
STARLINK-37308,2026-099B,2026-07-12T22:50:51.853056,15.34402685,.0001159,53.1593,41.1714,92.2805,267.8330,0,U,68952,999,1122,.46692E-3,.15433E-3,0
STARLINK-37337,2026-099C,2026-07-12T22:47:49.688160,15.34408861,.0001297,53.1584,41.1607,87.6100,272.5051,0,U,68953,999,1122,.46052E-3,.15219E-3,0
STARLINK-37301,2026-099D,2026-07-12T19:34:10.528896,15.34401457,.0002035,53.1604,41.7386,124.5465,235.5730,0,U,68954,999,1120,.3712E-3,.12186E-3,0
STARLINK-36794,2026-099E,2026-07-12T21:10:59.924064,15.34407557,.0001298,53.1587,41.4344,113.5684,246.5455,0,U,68955,999,1121,.46897E-3,.15505E-3,0
STARLINK-36760,2026-099F,2026-07-12T21:04:56.339904,15.34410072,.0001055,53.1581,41.4028,90.4540,269.6583,0,U,68956,999,1121,.50103E-3,.16595E-3,0
STARLINK-37047,2026-099G,2026-07-12T21:01:54.772032,15.34403342,.000122,53.1589,41.4117,84.0070,276.1071,0,U,68957,999,1121,.29414E-3,.9575E-4,0
STARLINK-36242,2026-099H,2026-07-12T20:58:52.747104,15.34404355,.0001287,53.1584,41.3832,96.3803,263.7346,0,U,68958,999,1121,.31276E-3,.10207E-3,0
STARLINK-37033,2026-099J,2026-07-12T20:55:51.278592,15.34401679,.0001258,53.1593,41.3826,90.3967,269.7180,0,U,68959,999,1121,.45816E-3,.15135E-3,0
STARLINK-36978,2026-099K,2026-07-12T19:19:01.503264,15.34406607,.0001342,53.1582,41.6727,108.4863,251.6286,0,U,68960,999,1120,.39442E-3,.12976E-3,0
STARLINK-36965,2026-099L,2026-07-12T20:49:47.245152,15.34379448,.0001052,53.1581,41.3536,76.4038,283.7082,0,U,68961,999,1121,.78415E-3,.26193E-3,0
STARLINK-36765,2026-099M,2026-07-12T23:54:21.127104,15.34398726,.0001452,53.1606,40.7142,81.4192,278.6975,0,U,68962,999,1123,.2286E-3,.7355E-4,0
STARLINK-36764,2026-099N,2026-07-12T20:43:43.741344,15.34400912,.0001165,53.1594,41.3093,88.5969,271.5167,0,U,68963,999,1121,.31933E-3,.10428E-3,0
STARLINK-36731,2026-099P,2026-07-12T20:40:42.048192,15.34407677,.0000997,53.1586,41.2945,86.1050,274.0067,0,U,68964,999,1121,.51095E-3,.1693E-3,0
STARLINK-36664,2026-099Q,2026-07-12T23:45:15.397056,15.34414575,.0001094,53.1592,40.6721,70.9631,289.1490,0,U,68965,999,1123,.63536E-3,.21161E-3,0
STARLINK-36402,2026-099R,2026-07-12T23:42:13.792032,15.34410987,.0001112,53.1591,40.6674,83.8728,276.2401,0,U,68966,999,1123,.50098E-3,.16594E-3,0
STARLINK-36671,2026-099S,2026-07-12T20:12:01.182240,15.33560576,.0001216,53.1599,41.1611,99.2025,260.9114,0,U,68967,999,1121,.45938E-3,.1477E-3,0
STARLINK-36665,2026-099T,2026-07-12T23:36:10.155168,15.34410328,.000121,53.1606,40.6329,103.1756,256.9381,0,U,68968,999,1123,.41724E-3,.13751E-3,0
STARLINK-36303,2026-099U,2026-07-12T20:09:55.719072,15.33563657,.0001483,53.1607,41.1497,112.2735,247.8425,0,U,68969,999,1121,.511E-3,.16477E-3,0
STARLINK-37257,2026-099V,2026-07-12T20:22:31.179072,15.34402701,.0000958,53.1598,41.2167,106.3987,253.7121,0,U,68970,999,1121,.45565E-3,.15051E-3,0
STARLINK-37367,2026-099W,2026-07-12T20:19:29.453088,15.34404646,.0001279,53.1601,41.2124,82.7294,277.3854,0,U,68971,999,1121,.3108E-3,.10141E-3,0
STARLINK-37259,2026-099X,2026-07-12T20:16:27.595776,15.34417548,.0001187,53.1602,41.1990,119.1888,240.9233,0,U,68972,999,1121,.60924E-3,.20275E-3,0
STARLINK-37387,2026-099Y,2026-07-12T21:22:58.376352,15.34436677,.0001689,53.1593,40.7885,70.5418,289.5767,0,U,68973,999,1122,.62644E-3,.20873E-3,0
